STARLINK-5379           
1 54868U 22177BA  23144.41320577  .00005627  00000+0  43122-3 0  9997
2 54868  43.0023 263.8327 0001382 247.6883 112.3813 15.02541366 23634
STARLINK-5402           
1 54869U 22177BB  23144.48745442 -.00000539  00000+0 -24804-4 0  9993
2 54869  43.0044 263.5322 0001564 254.8974 105.1695 15.02537136 23642
STARLINK-5401           
1 54870U 22177BC  23144.41653491 -.00000669  00000+0 -34423-4 0  9992
2 54870  43.0052 263.8600 0001555 269.5511  90.5153 15.02538514 23631
STARLINK-5397           
1 54871U 22177BD  23144.35782809 -.00000548  00000+0 -25509-4 0  9993
2 54871  43.0033 264.2790 0001561 260.0984  99.9683 15.02534435 22529
STARLINK-5390           
1 54872U 22177BE  23144.47524661  .00006143  00000+0  46933-3 0  9995
2 54872  43.0028 263.4669 0001769 272.9429  87.1211 15.02541684 22537
STARLINK-5091           
1 54873U 22177BF  23144.41098538  .00000226  00000+0  31798-4 0  9999
2 54873  43.0037 263.8172 0001375 271.1604  88.9081 15.02535287 23638
SHIYAN 10-02 (SY-10 02) 
1 54878U 22178A   23144.10194825  .00000985  00000+0  00000+0 0  9996
2 54878  63.3942  98.2368 6971911 269.1877  17.4940  2.00625579  2958
EROS C3                 
1 54880U 22179A   23144.56922813  .00007992  00000+0  26253-3 0  9993
2 54880 139.3575 351.6270 0012776 242.2002 117.7516 15.29403744 22213
STAR VIBE               
1 55009U 23001A   23144.62241436  .00004735  00000+0  26574-3 0  9992
2 55009  97.4776 204.1765 0011763 105.8176 254.4354 15.13765500 21476
MENUT                   
1 55010U 23001B   23144.65619950  .00003986  00000+0  22211-3 0  9998
2 55010  97.4808 204.3320 0012044 106.6695 253.5859 15.14117397 21488
BRO-8                   
1 55011U 23001C   23144.61311472  .00003224  00000+0  18214-3 0  9996
2 55011  97.4832 204.2866 0012724 108.0237 252.2382 15.13749357 21475
CONNECTA T1.2           
1 55012U 23001D   23144.64953264  .00005736  00000+0  31654-3 0  9994
2 55012  97.4849 204.4262 0013377 106.0976 254.1730 15.14262961 21480
LEMUR-2-PHILARI         
1 55013U 23001E   23144.15708095  .00021856  00000+0  10635-2 0  9997
2 55013  97.4765 204.1527 0010776 101.0761 259.1686 15.18354034 21433
LEMUR-2-DISCLAIMER      
1 55014U 23001F   23144.61389293  .00017322  00000+0  84826-3 0  9991
2 55014  97.4800 204.6854 0011814 104.6442 255.6103 15.18172029 21506
BIRKELAND               
1 55015U 23001G   23144.61713513  .00007928  00000+0  42721-3 0  9997
2 55015  97.4838 204.4459 0012651 103.4205 256.8438 15.14997350 21480
LEMUR-2-STEVEALBERS     
1 55017U 23001J   23144.63505953  .00018140  00000+0  89704-3 0  9998
2 55017  97.4750 204.5601 0011183 100.5359 259.7135 15.17826758 21507
KSF3-C                  
1 55018U 23001K   23144.61880382  .00010735  00000+0  55533-3 0  9994
2 55018  97.4778 204.4930 0012133  98.8271 261.4337 15.16359371 21493
KSF3-B                  
1 55019U 23001L   23144.60361659  .00008524  00000+0  43569-3 0  9994
2 55019  97.4810 204.5696 0012364 103.3363 256.9250 15.16844223 21499
FLOCK 4Y-24             
1 55020U 23001M   23144.61012893  .00007487  00000+0  37016-3 0  9997
2 55020  97.4771 204.6507 0012555  96.4562 263.8102 15.18053584 21503
FLOCK 4Y-32             
1 55021U 23001N   23144.60733047  .00008284  00000+0  40832-3 0  9994
2 55021  97.4770 204.6482 0012479  92.9763 267.2899 15.18125477 21506
FLOCK 4Y-22             
1 55022U 23001P   23144.60491331  .00007678  00000+0  37942-3 0  9996
2 55022  97.4775 204.6612 0012768  88.2156 272.0540 15.18060073 21509
FLOCK 4Y-18             
1 55023U 23001Q   23144.47438571  .00008306  00000+0  40981-3 0  9995
2 55023  97.4804 204.5835 0012371  94.3554 265.9093 15.18092763 21481
FLOCK 4Y-14             
1 55024U 23001R   23144.40153875  .00008678  00000+0  42811-3 0  9996
2 55024  97.4794 204.5101 0012770  97.6344 262.6341 15.18080151 21479
FLOCK 4Y-30             
1 55025U 23001S   23144.13545011  .00009323  00000+0  45942-3 0  9990
2 55025  97.4806 204.2729 0012764  96.9295 263.3391 15.18096165 21438
FLOCK 4Y-19             
1 55026U 23001T   23144.60218351  .00007894  00000+0  38952-3 0  9991
2 55026  97.4768 204.6487 0013039  89.2776 270.9952 15.18098344 21502
FLOCK 4Y-25             
1 55027U 23001U   23144.13388957  .00009011  00000+0  44446-3 0  9998
2 55027  97.4761 204.1916 0012596  95.1143 265.1529 15.18077184 21436
FLOCK 4Y-5              
1 55028U 23001V   23144.65473551  .00008635  00000+0  42510-3 0  9992
2 55028  97.4777 204.7487 0013170  87.8694 272.4047 15.18148438 21517
FLOCK 4Y-10             
1 55029U 23001W   23144.59415733  .00008560  00000+0  42229-3 0  9998
2 55029  97.4802 204.7271 0012561  92.1164 268.1508 15.18088008 21501
FLOCK 4Y-29             
1 55030U 23001X   23144.59208427  .00009063  00000+0  44735-3 0  9993
2 55030  97.4762 204.6529 0013016  91.9143 268.3581 15.18044846 21508
FLOCK 4Y-17             
1 55031U 23001Y   23144.60139193  .00007915  00000+0  39114-3 0  9998
2 55031  97.4808 204.7289 0012956  94.4139 265.8575 15.18046938 21508
FLOCK 4Y-7              
1 55032U 23001Z   23144.64822285  .00009076  00000+0  44541-3 0  9994
2 55032  97.4775 204.7494 0013485  87.3858 272.8920 15.18239630 21513
FLOCK 4Y-28             
1 55033U 23001AA  23144.63003270  .00030852  00000+0  14359-2 0  9998
2 55033  97.4749 204.7318 0011608  96.7251 263.5305 15.19817213 21510
LYNK TOWER 4            
1 55034U 23001AB  23144.65674933  .00003647  00000+0  20538-3 0  9990
2 55034  97.4800 204.3284 0013975  91.2808 269.0025 15.13764332 21487
FLOCK 4Y-3              
1 55035U 23001AC  23144.63849969  .00008640  00000+0  42566-3 0  9995
2 55035  97.4770 204.7507 0016017  93.1221 267.1845 15.18088150 21511
UMBRA-05                
1 55036U 23001AD  23143.69427207  .00007031  00000+0  37515-3 0  9999
2 55036  97.4806 203.9189 0004433 242.1897 117.8886 15.15450463 21370
LEMUR-2-EMMACULATE      
1 55037U 23001AE  23144.65417731  .00021420  00000+0  97871-3 0  9997
2 55037  97.4818 205.1248 0015357  90.2702 270.0293 15.20484219 21532
LEMUR-2-MMOLO           
1 55038U 23001AF  23144.63108524  .00022899  00000+0  10313-2 0  9999
2 55038  97.4836 205.1832 0016071  92.0159 268.2917 15.20956162 21535
FLOCK 4Y-1              
1 55039U 23001AG  23144.64522252  .00011428  00000+0  55971-3 0  9995
2 55039  97.4767 204.7351 0013557  88.7158 271.5629 15.18244396 21518
FLOCK 4Y-16             
1 55040U 23001AH  23144.64835944  .00008709  00000+0  42877-3 0  9991
2 55040  97.4813 204.8312 0013177  95.1890 265.0848 15.18145347 21510
SKYKRAFT-1              
1 55041U 23001AJ  23144.59318955  .00006833  00000+0  36879-3 0  9995
2 55041  97.4790 204.3981 0014605  93.6063 266.6840 15.14969636 21480
FLOCK 4Y-33             
1 55042U 23001AK  23144.65258405  .00008804  00000+0  43338-3 0  9994
2 55042  97.4759 204.7147 0013394  89.9855 270.2914 15.18143435 21517
FLOCK 4Y-11             
1 55043U 23001AL  23144.59149230  .00008137  00000+0  40902-3 0  9996
2 55043  97.4808 204.7399 0013053  89.9628 270.3101 15.17440736 21503
STERNULA-1              
1 55044U 23001AM  23144.63077162  .00010622  00000+0  55422-3 0  9991
2 55044  97.4832 204.5759 0014235  99.7519 260.5322 15.16035224 21495
NUSAT-34 (AMELIA EARHA*)
1 55045U 23001AN  23144.61934283  .00007696  00000+0  37433-3 0  9995
2 55045  97.4464 204.4785 0015006  85.6277 274.6672 15.18583048 21507
LYNK TOWER 3            
1 55046U 23001AP  23144.64762267  .00004095  00000+0  22940-3 0  9997
2 55046  97.4805 204.3474 0014144  93.3752 266.9098 15.13883670 21489
NUSAT-33 (ALBANIA-2)    
1 55047U 23001AQ  23144.61933245  .00008052  00000+0  37981-3 0  9999
2 55047  97.4332 204.4759 0013901  75.9462 284.3317 15.19649282 21513
NUSAT-35 (WILLIAMINA)   
1 55048U 23001AR  23144.64687358  .00007114  00000+0  38131-3 0  9990
2 55048  97.4791 204.4801 0014296  92.2565 268.0304 15.15202315 21495
ICEYE-X21               
1 55049U 23001AS  23144.61905279  .00009828  00000+0  51451-3 0  9997
2 55049  97.4802 204.5261 0014884  93.3249 266.9687 15.15930551 21495
UMBRA-04                
1 55050U 23001AT  23144.17616063  .00001896  00000+0  10000-3 0  9992
2 55050  97.4806 204.3713 0003409 114.7572 310.0807 15.16761728 21448
ION SCV-008             
1 55051U 23001AU  23144.63610088  .00003032  00000+0  18498-3 0  9998
2 55051  98.2445 213.4306 0025617 127.7336 232.6219 15.10948000 21454
SKYKRAFT-1D             
1 55052U 23001AV  23144.40081899  .00010115  00000+0  52480-3 0  9995
2 55052  97.4786 204.3421 0014322  94.1792 266.1078 15.16245347 21461
EOSSAT-1                
1 55053U 23001AW  23144.62391630  .00004180  00000+0  23185-3 0  9992
2 55053  97.4808 204.3782 0015615  93.3777 266.9242 15.14213588 21480
SKYKRAFT-1A             
1 55054U 23001AX  23144.61359999  .00003546  00000+0  19632-3 0  9991
2 55054  97.4786 204.3606 0014907  94.1337 266.1599 15.14386411 21488
FLOCK 4Y-4              
1 55055U 23001AY  23144.64395044  .00008856  00000+0  43481-3 0  9994
2 55055  97.4787 204.7760 0015043  91.5574 268.7383 15.18213513 21510
VIGORIDE-5              
1 55056U 23001AZ  23145.12867255  .00007875  00000+0  43379-3 0  9993
2 55056  97.4786 204.9334 0014638  92.1088 332.1760 15.14192016 21565
FLOCK 4Y-35             
1 55057U 23001BA  23144.64208389  .00008948  00000+0  44124-3 0  9998
2 55057  97.4801 204.8106 0014265  96.2916 263.9943 15.18068126 21518
SKYKRAFT-1B             
1 55058U 23001BB  23144.62969663  .00007497  00000+0  39731-3 0  9992
2 55058  97.4790 204.4965 0014628  93.6830 266.6075 15.15582341 21494
ION SCV-007             
1 55060U 23001BD  23144.65827207  .00000645  00000+0  10393-3 0  9996
2 55060  98.0494 205.6418 0012416 338.5615  21.5072 14.74809411 21079
SKYKRAFT-1C             
1 55061U 23001BE  23144.62701945  .00002858  00000+0  16085-3 0  9996
2 55061  97.4795 204.3559 0014741  97.3739 262.9168 15.13959612 21484
